STARLINK-1856           
1 47143U 20088X   24210.85357309 -.00003805  00000+0 -23681-3 0  9996
2 47143  53.0549  55.0051 0001425  81.5732 278.5419 15.06384731203516
STARLINK-1857           
1 47144U 20088Y   24210.77340608 -.00003637  00000+0 -22550-3 0  9999
2 47144  53.0552  45.3630 0001341  89.9727 270.1415 15.06387120203608
STARLINK-1860           
1 47147U 20088AB  24210.81739983  .00015571  00000+0  99963-3 0  9995
2 47147  53.0518  64.6678 0003248 265.1299  94.9320 15.08637198203342
STARLINK-1861           
1 47148U 20088AC  24210.83884353  .00000257  00000+0  36173-4 0  9990
2 47148  53.0552  55.0707 0001682  75.7191 284.3984 15.06395808203476
STARLINK-1862           
1 47149U 20088AD  24210.86739333  .00000477  00000+0  50933-4 0  9995
2 47149  53.0542  64.9405 0001244  91.4822 268.6309 15.06389851203343
STARLINK-1863           
1 47150U 20088AE  24210.79460168  .00001395  00000+0  11250-3 0  9994
2 47150  53.0545  55.2668 0001284  87.6984 272.4152 15.06398983203471
STARLINK-1864           
1 47151U 20088AF  24210.86003293 -.00000416  00000+0 -90299-5 0  9992
2 47151  53.0536  64.9755 0001146  98.2562 261.8557 15.06391695203332
STARLINK-1866           
1 47152U 20088AG  24210.84432585  .00000966  00000+0  83736-4 0  9996
2 47152  53.0532  65.0356 0001497 137.5118 222.5987 15.06388543203330
STARLINK-1867           
1 47153U 20088AH  24210.84301736 -.00000626  00000+0 -23142-4 0  9990
2 47153  53.0557  70.2910 0001541  96.2090 263.9074 15.06386774203264
STARLINK-1869           
1 47155U 20088AK  24210.85172605 -.00006225  00000+0 -39956-3 0  9994
2 47155  53.0544  75.0144 0001526  86.6268 273.4895 15.06382948203195
STARLINK-1871           
1 47157U 20088AM  24210.82315938 -.00006841  00000+0 -44095-3 0  9995
2 47157  53.0548  65.1360 0001720 105.4158 254.7021 15.06384236203336
STARLINK-1873           
1 47158U 20088AN  24210.77985483 -.00000794  00000+0 -34399-4 0  9996
2 47158  53.0559  55.3341 0001396  70.3231 289.7909 15.06397673203466
STARLINK-1876           
1 47161U 20088AR  24210.87937999 -.00002157  00000+0 -12600-3 0  9995
2 47161  53.0549  54.8895 0001323  94.6221 265.4919 15.06394260203488
STARLINK-1877           
1 47162U 20088AS  24210.87476795 -.00000787  00000+0 -33977-4 0  9996
2 47162  53.0545  64.9069 0001188  87.2268 272.8857 15.06386359203346
STARLINK-1878           
1 47163U 20088AT  24210.84067106 -.00000194  00000+0  58487-5 0  9991
2 47163  53.0549  75.0649 0001567  96.8940 263.2227 15.06397626203199
STARLINK-1879           
1 47164U 20088AU  24210.82870433 -.00004216  00000+0 -26452-3 0  9990
2 47164  53.0546  45.1122 0001318  88.4713 271.6427 15.06374794203613
STARLINK-1880           
1 47165U 20088AV  24210.83422131 -.00001870  00000+0 -10671-3 0  9999
2 47165  53.0549  65.0908 0001345  93.1070 267.0073 15.06390617203336
STARLINK-1884           
1 47167U 20088AX  24210.88582390 -.00001754  00000+0 -98912-4 0  9996
2 47167  53.0536  64.8589 0001371  95.6653 264.4492 15.06390336203399
STARLINK-1887           
1 47170U 20088BA  24210.87108359 -.00000633  00000+0 -23631-4 0  9999
2 47170  53.0551  64.9231 0001397 106.5820 253.5323 15.06382950203385
STARLINK-1888           
1 47171U 20088BB  24210.55869854  .00000499  00000+0  52448-4 0  9995
2 47171  53.0524  56.3283 0002004  89.3864 270.7354 15.06393119203474
STARLINK-1890           
1 47173U 20088BD  24210.88214081 -.00002608  00000+0 -15633-3 0  9999
2 47173  53.0540  64.8735 0000999  99.7590 260.3512 15.06388280203386
STARLINK-1891           
1 47174U 20088BE  24210.82684440 -.00007196  00000+0 -46490-3 0  9996
2 47174  53.0556  65.1233 0001505  86.2017 273.9144 15.06381582203378
STARLINK-1895           
1 47175U 20088BF  24210.55962291  .00006812  00000+0  47585-3 0  9998
2 47175  53.0549  46.3252 0001705  63.9713 296.1452 15.06393339203327
STARLINK-1907           
1 47177U 20088BH  24210.87569146 -.00007313  00000+0 -47287-3 0  9995
2 47177  53.0537  54.9039 0001234  78.8697 281.2431 15.06376764203524
STARLINK-1912           
1 47178U 20088BJ  24210.85634041 -.00001512  00000+0 -82644-4 0  9993
2 47178  53.0537  64.9913 0001474 101.3646 258.7509 15.06390227203085
STARLINK-1913           
1 47179U 20088BK  24210.84437976 -.00000482  00000+0 -13467-4 0  9993
2 47179  53.0544  75.0454 0001786  90.6402 269.4791 15.06380738203193
