OBJECT_NAME,OBJECT_ID,EPOCH,MEAN_MOTION,ECCENTRICITY,INCLINATION,RA_OF_ASC_NODE,ARG_OF_PERICENTER,MEAN_ANOMALY,EPHEMERIS_TYPE,CLASSIFICATION_TYPE,NORAD_CAT_ID,ELEMENT_SET_NO,REV_AT_EPOCH,BSTAR,MEAN_MOTION_DOT,MEAN_MOTION_DDOT
STARLINK-1856,2020-088X,2024-07-28T20:29:08.714976,15.06384731,.0001425,53.0549,55.0051,81.5732,278.5419,0,U,47143,999,20351,-.23681E-3,-.3805E-4,0
STARLINK-1857,2020-088Y,2024-07-28T18:33:42.285312,15.06387120,.0001341,53.0552,45.3630,89.9727,270.1415,0,U,47144,999,20360,-.2255E-3,-.3637E-4,0
STARLINK-1860,2020-088AB,2024-07-28T19:37:03.345312,15.08637198,.0003248,53.0518,64.6678,265.1299,94.9320,0,U,47147,999,20334,.99963E-3,.15571E-3,0
STARLINK-1861,2020-088AC,2024-07-28T20:07:56.080992,15.06395808,.0001682,53.0552,55.0707,75.7191,284.3984,0,U,47148,999,20347,.36173E-4,.257E-5,0
STARLINK-1862,2020-088AD,2024-07-28T20:49:02.783712,15.06389851,.0001244,53.0542,64.9405,91.4822,268.6309,0,U,47149,999,20334,.50933E-4,.477E-5,0
STARLINK-1863,2020-088AE,2024-07-28T19:04:13.585152,15.06398983,.0001284,53.0545,55.2668,87.6984,272.4152,0,U,47150,999,20347,.1125E-3,.1395E-4,0
STARLINK-1864,2020-088AF,2024-07-28T20:38:26.845152,15.06391695,.0001146,53.0536,64.9755,98.2562,261.8557,0,U,47151,999,20333,-.90299E-5,-.416E-5,0
STARLINK-1866,2020-088AG,2024-07-28T20:15:49.753440,15.06388543,.0001497,53.0532,65.0356,137.5118,222.5987,0,U,47152,999,20333,.83736E-4,.966E-5,0
STARLINK-1867,2020-088AH,2024-07-28T20:13:56.699904,15.06386774,.0001541,53.0557,70.2910,96.2090,263.9074,0,U,47153,999,20326,-.23142E-4,-.626E-5,0
STARLINK-1869,2020-088AK,2024-07-28T20:26:29.130720,15.06382948,.0001526,53.0544,75.0144,86.6268,273.4895,0,U,47155,999,20319,-.39956E-3,-.6225E-4,0
STARLINK-1871,2020-088AM,2024-07-28T19:45:20.970432,15.06384236,.000172,53.0548,65.1360,105.4158,254.7021,0,U,47157,999,20333,-.44095E-3,-.6841E-4,0
STARLINK-1873,2020-088AN,2024-07-28T18:42:59.457312,15.06397673,.0001396,53.0559,55.3341,70.3231,289.7909,0,U,47158,999,20346,-.34399E-4,-.794E-5,0
STARLINK-1876,2020-088AR,2024-07-28T21:06:18.431136,15.06394260,.0001323,53.0549,54.8895,94.6221,265.4919,0,U,47161,999,20348,-.126E-3,-.2157E-4,0
STARLINK-1877,2020-088AS,2024-07-28T20:59:39.950880,15.06386359,.0001188,53.0545,64.9069,87.2268,272.8857,0,U,47162,999,20334,-.33977E-4,-.787E-5,0
STARLINK-1878,2020-088AT,2024-07-28T20:10:33.979584,15.06397626,.0001567,53.0549,75.0649,96.8940,263.2227,0,U,47163,999,20319,.58487E-5,-.194E-5,0
STARLINK-1879,2020-088AU,2024-07-28T19:53:20.054112,15.06374794,.0001318,53.0546,45.1122,88.4713,271.6427,0,U,47164,999,20361,-.26452E-3,-.4216E-4,0
STARLINK-1880,2020-088AV,2024-07-28T20:01:16.721184,15.06390617,.0001345,53.0549,65.0908,93.1070,267.0073,0,U,47165,999,20333,-.10671E-3,-.187E-4,0
STARLINK-1884,2020-088AX,2024-07-28T21:15:35.184960,15.06390336,.0001371,53.0536,64.8589,95.6653,264.4492,0,U,47167,999,20339,-.98912E-4,-.1754E-4,0
STARLINK-1887,2020-088BA,2024-07-28T20:54:21.622176,15.06382950,.0001397,53.0551,64.9231,106.5820,253.5323,0,U,47170,999,20338,-.23631E-4,-.633E-5,0
STARLINK-1888,2020-088BB,2024-07-28T13:24:31.553856,15.06393119,.0002004,53.0524,56.3283,89.3864,270.7354,0,U,47171,999,20347,.52448E-4,.499E-5,0
STARLINK-1890,2020-088BD,2024-07-28T21:10:16.965984,15.06388280,.0000999,53.0540,64.8735,99.7590,260.3512,0,U,47173,999,20338,-.15633E-3,-.2608E-4,0
STARLINK-1891,2020-088BE,2024-07-28T19:50:39.356160,15.06381582,.0001505,53.0556,65.1233,86.2017,273.9144,0,U,47174,999,20337,-.4649E-3,-.7196E-4,0
STARLINK-1895,2020-088BF,2024-07-28T13:25:51.419424,15.06393339,.0001705,53.0549,46.3252,63.9713,296.1452,0,U,47175,999,20332,.47585E-3,.6812E-4,0
STARLINK-1907,2020-088BH,2024-07-28T21:00:59.742144,15.06376764,.0001234,53.0537,54.9039,78.8697,281.2431,0,U,47177,999,20352,-.47287E-3,-.7313E-4,0
STARLINK-1912,2020-088BJ,2024-07-28T20:33:07.811424,15.06390227,.0001474,53.0537,64.9913,101.3646,258.7509,0,U,47178,999,20308,-.82644E-4,-.1512E-4,0
STARLINK-1913,2020-088BK,2024-07-28T20:15:54.411264,15.06380738,.0001786,53.0544,75.0454,90.6402,269.4791,0,U,47179,999,20319,-.13467E-4,-.482E-5,0
